GORIZONT 1              
1 11158U 78118A   24198.46704026  .00000036  00000+0  00000+0 0  9991
2 11158  11.4973 176.4734 3243511 322.8496  18.3650  1.00252661115911
GORIZONT 2              
1 11440U 79062A   24199.79453693  .00000069  00000+0  00000+0 0  9998
2 11440   7.4608 293.1933 0002580 289.2423  60.4494  1.00259149131005
GORIZONT 3              
1 11648U 79105A   24199.93334347  .00000174  00000+0  00000+0 0  9993
2 11648   7.6357 294.8229 0012729 236.3889 140.4164  1.00271304115472
GORIZONT 4              
1 11841U 80049A   24199.66839267 -.00000214  00000+0  00000+0 0  9994
2 11841   8.8379 301.3785 0000693 284.1433  97.5846  0.98631797226629
GORIZONT 5              
1 13092U 82020A   24199.13087898 -.00000162  00000+0  00000+0 0  9994
2 13092   9.9140 306.9589 0033992 233.5205 123.8252  0.98533301114692
GORIZONT 6              
1 13624U 82103A   24199.13227135 -.00000201  00000+0  00000+0 0  9991
2 13624   8.8683 307.2211 0001197 234.8366 129.8351  1.00262099113932
GORIZONT 7              
1 14160U 83066A   24199.60277760 -.00000169  00000+0  00000+0 0  9990
2 14160  10.6861 317.2747 0010238 328.2867  43.7968  0.98349948147875
GORIZONT 8              
1 14532U 83118A   24200.49107139 -.00000023  00000+0  00000+0 0  9992
2 14532  10.8998 319.2450 0029739 168.3210 205.5728  0.98269634113671
GORIZONT 9              
1 14940U 84041A   24199.80149875 -.00000253  00000+0  00000+0 0  9991
2 14940  10.0768 317.0953 0005166 239.4103 123.9360  1.00256579114937
GORIZONT 10             
1 15144U 84078A   24200.13229181 -.00000239  00000+0  00000+0 0  9990
2 15144  10.1952 318.1230 0001067 244.2248 101.7765  1.00307992147609
GORIZONT 11             
1 15484U 85007A   24199.93412668  .00000158  00000+0  00000+0 0  9998
2 15484  10.4157 320.2229 0004658 188.5044 167.1346  1.00170621145618
GORIZONT 12             
1 16769U 86044A   24199.77256770 -.00000303  00000+0  00000+0 0  9992
2 16769  11.1693 325.7604 0002471 242.7487 109.3078  1.00231705140245
GORIZONT 13             
1 17083U 86090A   24199.73443642 -.00000144  00000+0  00000+0 0  9998
2 17083  13.2026 333.2808 0012280 350.1119  16.3670  0.96727258111883
GORIZONT 14             
1 17969U 87040A   24199.00184131 -.00000082  00000+0  00000+0 0  9993
2 17969  11.9222 324.3654 0031712 192.6400 171.6342  0.97659113113026
GORIZONT 15             
1 19017U 88028A   24200.48777343 -.00000085  00000+0  00000+0 0  9997
2 19017  13.5798 335.8620 0037705 174.7961 174.3397  0.97828397112659
GORIZONT 16             
1 19397U 88071A   24199.90693410 -.00000123  00000+0  00000+0 0  9995
2 19397  12.4150 334.5477 0012988  85.0336 109.8638  0.99966829131244
GORIZONT 17             
1 19765U 89004A   24200.06229750 -.00000010  00000+0  00000+0 0  9998
2 19765  13.0521 338.0085 0023422 153.1442 218.0210  0.99066624128649
GORIZONT 18             
1 20107U 89052A   24200.56018361 -.00000220  00000+0  00000+0 0  9995
2 20107  13.1352 339.2205 0033483 331.7352 353.1454  0.99405958127460
GORIZONT 19             
1 20263U 89081A   24200.00429094  .00000142  00000+0  00000+0 0  9990
2 20263  12.8451 338.3278 0004421 221.6632 134.0314  1.00253068127486
GORIZONT 20             
1 20659U 90054A   24199.87203802 -.00000247  00000+0  00000+0 0  9997
2 20659  13.3677 341.0644 0007473 197.8510 162.1007  1.00306784124671
GORIZONT 21             
1 20923U 90094A   24199.57315951  .00000137  00000+0  00000+0 0  9998
2 20923  13.4034 341.8068 0006214 219.2528 328.6734  1.00351897123435
GORIZONT 22             
1 20953U 90102A   24199.63950117 -.00000008  00000+0  00000+0 0  9995
2 20953  13.3743 342.2421 0001120   2.3608 182.4929  1.00272115123351
GORIZONT 23             
1 21533U 91046A   24199.67535449 -.00000169  00000+0  00000+0 0  9997
2 21533  14.2591 346.4684 0003788 304.7757  69.4527  0.98911248 39773
GORIZONT 24             
1 21759U 91074A   24199.60477913 -.00000167  00000+0  00000+0 0  9990
2 21759  14.4750 348.4581 0020030 241.1472 109.9707  0.98445314118063
GORIZONT 25             
1 21922U 92017A   24199.50570365  .00000123  00000+0  00000+0 0  9995
2 21922  14.0001 347.6543 0027817 102.8183  74.6535  0.99846098117950
GORIZONT 26             
1 22041U 92043A   24200.10696844 -.00000056  00000+0  00000+0 0  9993
2 22041  14.2348 349.7605 0032661 250.2736 288.1778  0.99245671116552
GORIZONT 27             
1 22245U 92082A   24199.57216604  .00000110  00000+0  00000+0 0  9992
2 22245  14.1402 349.1678 0010010  26.1493 327.0003  1.00185185120102
GORIZONT 28             
1 22880U 93069A   24199.80715522 -.00000332  00000+0  00000+0 0  9999
2 22880  14.4065 353.1440 0034883 152.9783 204.9235  0.99654746112158
GORIZONT 29             
1 22907U 93072A   24199.57394272  .00000126  00000+0  00000+0 0  9992
2 22907  14.3006 352.5241 0008021 357.2332 183.7383  1.00136101112194
GORIZONT 30             
1 23108U 94030A   24199.70990248 -.00000048  00000+0  00000+0 0  9995
2 23108  14.3430 353.4157 0003312 204.1845 350.5769  1.00254223110446
GORIZONT 31             
1 23775U 96005A   24199.64280802  .00000038  00000+0  00000+0 0  9998
2 23775  14.4639 359.7677 0020808 220.4043 325.1050  0.99895704104068
GORIZONT 32             
1 23880U 96034A   24199.71068568 -.00000036  00000+0  00000+0 0  9997
2 23880  14.4301   0.2248 0006220 359.8192 191.3802  1.00206312103024
GORIZONT 33             
1 26372U 00029A   24200.01342832 -.00000198  00000+0  00000+0 0  9999
2 26372  13.5219  11.8178 0002297 173.8453 198.0373  1.00394162 88407
